start=new Date('2023-05-19T00:00:00.000Z').valueOf();
sats=[{"APOAPSIS":"540.523","ARG_OF_PERICENTER":"87.4477","LAUNCH_DATE":"2021-12-18","TLE_LINE2":"2 50170  53.2163 176.1043 0001108  87.4477 272.6642 15.08836346 81668","TLE_LINE1":"1 50170U 21125Q   23138.44529804 -.00000534  00000-0 -15502-4 0  9998","MEAN_ELEMENT_THEORY":"SGP4","GP_ID":"232082929","PERIOD":"95.438","RA_OF_ASC_NODE":"176.1043","SITE":"AFWTR","EPHEMERIS_TYPE":"0","PERIAPSIS":"538.990","DECAY_DATE":null,"MEAN_MOTION_DDOT":"0.0000000000000","CLASSIFICATION_TYPE":"U","CENTER_NAME":"EARTH","BSTAR":"-0.00001550200000","REF_FRAME":"TEME","FILE":"3911221","MEAN_MOTION":"15.08836346","NORAD_CAT_ID":"50170","EPOCH":"2023-05-18T10:41:13.750656","ECCENTRICITY":"0.00011080","COUNTRY_CODE":"US","REV_AT_EPOCH":"8166","MEAN_MOTION_DOT":"-0.00000534","OBJECT_ID":"2021-125Q","MEAN_ANOMALY":"272.6642","OBJECT_TYPE":"PAYLOAD","SEMIMAJOR_AXIS":"6917.892","OBJECT_NAME":"STARLINK-3245","RCS_SIZE":"LARGE","ELEMENT_SET_NO":"999","INCLINATION":"53.2163","TIME_SYSTEM":"UTC"},{"REV_AT_EPOCH":"8172","OBJECT_ID":"2021-125R","MEAN_ANOMALY":"257.5547","MEAN_MOTION_DOT":"-0.00001089","OBJECT_NAME":"STARLINK-3286","OBJECT_TYPE":"PAYLOAD","SEMIMAJOR_AXIS":"6917.877","RCS_SIZE":"LARGE","TIME_SYSTEM":"UTC","ELEMENT_SET_NO":"999","INCLINATION":"53.2154","APOAPSIS":"540.533","ARG_OF_PERICENTER":"102.5573","LAUNCH_DATE":"2021-12-18","MEAN_ELEMENT_THEORY":"SGP4","GP_ID":"232113408","TLE_LINE2":"2 50171  53.2154 174.5535 0001144 102.5573 257.5547 15.08841119 81720","TLE_LINE1":"1 50171U 21125R   23138.79121699 -.00001089  00000-0 -50346-4 0  9998","SITE":"AFWTR","EPHEMERIS_TYPE":"0","PERIOD":"95.437","RA_OF_ASC_NODE":"174.5535","PERIAPSIS":"538.951","DECAY_DATE":null,"CENTER_NAME":"EARTH","BSTAR":"-0.00005034600000","REF_FRAME":"TEME","MEAN_MOTION_DDOT":"0.0000000000000","CLASSIFICATION_TYPE":"U","NORAD_CAT_ID":"50171","EPOCH":"2023-05-18T18:59:21.147936","FILE":"3911388","MEAN_MOTION":"15.08841119","COUNTRY_CODE":"US","ECCENTRICITY":"0.00011440"},{"LAUNCH_DATE":"2021-12-18","ARG_OF_PERICENTER":"86.2801","APOAPSIS":"540.588","RA_OF_ASC_NODE":"174.3556","PERIOD":"95.438","EPHEMERIS_TYPE":"0","SITE":"AFWTR","TLE_LINE2":"2 50172  53.2157 174.3556 0001215  86.2801 273.8330 15.08839253 81767","TLE_LINE1":"1 50172U 21125S   23138.83537836 -.00000232  00000-0  35373-5 0  9990","GP_ID":"232113658","MEAN_ELEMENT_THEORY":"SGP4","MEAN_MOTION_DDOT":"0.0000000000000","CLASSIFICATION_TYPE":"U","REF_FRAME":"TEME","BSTAR":"0.00000353730000","CENTER_NAME":"EARTH","DECAY_DATE":null,"PERIAPSIS":"538.907","COUNTRY_CODE":"US","ECCENTRICITY":"0.00012150","MEAN_MOTION":"15.08839253","FILE":"3911388","EPOCH":"2023-05-18T20:02:56.690304","NORAD_CAT_ID":"50172","REV_AT_EPOCH":"8176","MEAN_MOTION_DOT":"-0.00000232","OBJECT_ID":"2021-125S","MEAN_ANOMALY":"273.8330","RCS_SIZE":"LARGE","SEMIMAJOR_AXIS":"6917.883","OBJECT_TYPE":"PAYLOAD","OBJECT_NAME":"STARLINK-3287","INCLINATION":"53.2157","ELEMENT_SET_NO":"999","TIME_SYSTEM":"UTC"},{"REV_AT_EPOCH":"8187","MEAN_MOTION_DOT":"0.00000139","MEAN_ANOMALY":"273.8597","OBJECT_ID":"2021-125T","RCS_SIZE":"LARGE","OBJECT_TYPE":"PAYLOAD","SEMIMAJOR_AXIS":"6917.885","OBJECT_NAME":"STARLINK-3289","ELEMENT_SET_NO":"999","INCLINATION":"53.2156","TIME_SYSTEM":"UTC","LAUNCH_DATE":"2021-12-18","APOAPSIS":"540.625","ARG_OF_PERICENTER":"86.2540","PERIOD":"95.438","RA_OF_ASC_NODE":"164.5683","SITE":"AFWTR","EPHEMERIS_TYPE":"0","TLE_LINE1":"1 50173U 21125T   23138.80318784  .00000139  00000-0  26846-4 0  9996","TLE_LINE2":"2 50173  53.2156 164.5683 0001264  86.2540 273.8597 15.08838384 81874","MEAN_ELEMENT_THEORY":"SGP4","GP_ID":"232113909","MEAN_MOTION_DDOT":"0.0000000000000","CLASSIFICATION_TYPE":"U","CENTER_NAME":"EARTH","BSTAR":"0.00002684600000","REF_FRAME":"TEME","PERIAPSIS":"538.876","DECAY_DATE":null,"ECCENTRICITY":"0.00012640","COUNTRY_CODE":"US","FILE":"3911388","MEAN_MOTION":"15.08838384","NORAD_CAT_ID":"50173","EPOCH":"2023-05-18T19:16:35.429376"},{"MEAN_ANOMALY":"274.4955","OBJECT_ID":"2021-125U","MEAN_MOTION_DOT":"0.00000288","REV_AT_EPOCH":"8177","TIME_SYSTEM":"UTC","ELEMENT_SET_NO":"999","INCLINATION":"53.2155","RCS_SIZE":"LARGE","OBJECT_NAME":"STARLINK-3292","OBJECT_TYPE":"PAYLOAD","SEMIMAJOR_AXIS":"6917.867","SITE":"AFWTR","EPHEMERIS_TYPE":"0","PERIOD":"95.437","RA_OF_ASC_NODE":"174.4070","MEAN_ELEMENT_THEORY":"SGP4","GP_ID":"232114660","TLE_LINE2":"2 50174  53.2155 174.4070 0001126  85.6166 274.4955 15.08844294 81779","TLE_LINE1":"1 50174U 21125U   23138.82433617  .00000288  00000-0  36197-4 0  9997","LAUNCH_DATE":"2021-12-18","APOAPSIS":"540.511","ARG_OF_PERICENTER":"85.6166","ECCENTRICITY":"0.00011260","COUNTRY_CODE":"US","NORAD_CAT_ID":"50174","EPOCH":"2023-05-18T19:47:02.645088","FILE":"3911388","MEAN_MOTION":"15.08844294","CENTER_NAME":"EARTH","REF_FRAME":"TEME","BSTAR":"0.00003619700000","MEAN_MOTION_DDOT":"0.0000000000000","CLASSIFICATION_TYPE":"U","PERIAPSIS":"538.953","DECAY_DATE":null},{"PERIOD":"95.438","RA_OF_ASC_NODE":"176.3863","SITE":"AFWTR","EPHEMERIS_TYPE":"0","TLE_LINE1":"1 50175U 21125V   23138.38273684  .00000372  00000-0  41465-4 0  9993","TLE_LINE2":"2 50175  53.2156 176.3863 0001079  82.5171 277.5944 15.08839640 81660","MEAN_ELEMENT_THEORY":"SGP4","GP_ID":"232084182","LAUNCH_DATE":"2021-12-18","APOAPSIS":"540.493","ARG_OF_PERICENTER":"82.5171","ECCENTRICITY":"0.00010790","COUNTRY_CODE":"US","FILE":"3911221","MEAN_MOTION":"15.08839640","NORAD_CAT_ID":"50175","EPOCH":"2023-05-18T09:11:08.462976","CLASSIFICATION_TYPE":"U","MEAN_MOTION_DDOT":"0.0000000000000","CENTER_NAME":"EARTH","BSTAR":"0.00004146500000","REF_FRAME":"TEME","PERIAPSIS":"539.000","DECAY_DATE":null,"MEAN_MOTION_DOT":"0.00000372","MEAN_ANOMALY":"277.5944","OBJECT_ID":"2021-125V","REV_AT_EPOCH":"8166","ELEMENT_SET_NO":"999","INCLINATION":"53.2156","TIME_SYSTEM":"UTC","RCS_SIZE":"LARGE","OBJECT_TYPE":"PAYLOAD","SEMIMAJOR_AXIS":"6917.881","OBJECT_NAME":"STARLINK-3291"},{"TIME_SYSTEM":"UTC","ELEMENT_SET_NO":"999","INCLINATION":"53.2159","RCS_SIZE":"LARGE","OBJECT_NAME":"STARLINK-3293","OBJECT_TYPE":"PAYLOAD","SEMIMAJOR_AXIS":"6917.879","OBJECT_ID":"2021-125W","MEAN_ANOMALY":"275.4769","MEAN_MOTION_DOT":"0.00000594","REV_AT_EPOCH":"8177","ECCENTRICITY":"0.00012210","COUNTRY_CODE":"US","NORAD_CAT_ID":"50176","EPOCH":"2023-05-18T19:52:20.815680","FILE":"3911388","MEAN_MOTION":"15.08840503","CENTER_NAME":"EARTH","BSTAR":"0.00005541200000","REF_FRAME":"TEME","MEAN_MOTION_DDOT":"0.0000000000000","CLASSIFICATION_TYPE":"U","PERIAPSIS":"538.899","DECAY_DATE":null,"SITE":"AFWTR","EPHEMERIS_TYPE":"0","PERIOD":"95.438","RA_OF_ASC_NODE":"174.3911","MEAN_ELEMENT_THEORY":"SGP4","GP_ID":"232113158","TLE_LINE1":"1 50176U 21125W   23138.82801870  .00000594  00000-0  55412-4 0  9990","TLE_LINE2":"2 50176  53.2159 174.3911 0001221  84.6362 275.4769 15.08840503 81774","LAUNCH_DATE":"2021-12-18","APOAPSIS":"540.589","ARG_OF_PERICENTER":"84.6362"},{"MEAN_MOTION":"15.08839336","FILE":"3911221","EPOCH":"2023-05-18T09:00:32.587488","NORAD_CAT_ID":"50177","COUNTRY_CODE":"US","ECCENTRICITY":"0.00012800","DECAY_DATE":null,"PERIAPSIS":"538.862","CLASSIFICATION_TYPE":"U","MEAN_MOTION_DDOT":"0.0000000000000","BSTAR":"0.00005115100000","REF_FRAME":"TEME","CENTER_NAME":"EARTH","TLE_LINE2":"2 50177  53.2147 176.4212 0001280  84.9526 275.1612 15.08839336 81663","TLE_LINE1":"1 50177U 21125X   23138.37537717  .00000526  00000-0  51151-4 0  9998","GP_ID":"232082680","MEAN_ELEMENT_THEORY":"SGP4","RA_OF_ASC_NODE":"176.4212","PERIOD":"95.438","EPHEMERIS_TYPE":"0","SITE":"AFWTR","ARG_OF_PERICENTER":"84.9526","APOAPSIS":"540.633","LAUNCH_DATE":"2021-12-18","INCLINATION":"53.2147","ELEMENT_SET_NO":"999","TIME_SYSTEM":"UTC","SEMIMAJOR_AXIS":"6917.882","OBJECT_TYPE":"PAYLOAD","OBJECT_NAME":"STARLINK-3282","RCS_SIZE":"LARGE","MEAN_MOTION_DOT":"0.00000526","MEAN_ANOMALY":"275.1612","OBJECT_ID":"2021-125X","REV_AT_EPOCH":"8166"},{"RCS_SIZE":"LARGE","SEMIMAJOR_AXIS":"6917.887","OBJECT_TYPE":"PAYLOAD","OBJECT_NAME":"STARLINK-3284","INCLINATION":"53.2158","ELEMENT_SET_NO":"999","TIME_SYSTEM":"UTC","REV_AT_EPOCH":"8170","MEAN_MOTION_DOT":"0.00000493","MEAN_ANOMALY":"283.0730","OBJECT_ID":"2021-125Y","MEAN_MOTION_DDOT":"0.0000000000000","CLASSIFICATION_TYPE":"U","REF_FRAME":"TEME","BSTAR":"0.00004903400000","CENTER_NAME":"EARTH","DECAY_DATE":null,"PERIAPSIS":"538.953","COUNTRY_CODE":"US","ECCENTRICITY":"0.00011550","MEAN_MOTION":"15.08837991","FILE":"3911221","EPOCH":"2023-05-18T09:17:47.573952","NORAD_CAT_ID":"50178","LAUNCH_DATE":"2021-12-18","ARG_OF_PERICENTER":"77.0391","APOAPSIS":"540.551","RA_OF_ASC_NODE":"176.2262","PERIOD":"95.438","EPHEMERIS_TYPE":"0","SITE":"AFWTR","TLE_LINE2":"2 50178  53.2158 176.2262 0001155  77.0391 283.0730 15.08837991 81702","TLE_LINE1":"1 50178U 21125Y   23138.38735618  .00000493  00000-0  49034-4 0  9990","GP_ID":"232082930","MEAN_ELEMENT_THEORY":"SGP4"},{"ECCENTRICITY":"0.00012300","COUNTRY_CODE":"US","FILE":"3911388","MEAN_MOTION":"15.08842736","NORAD_CAT_ID":"50179","EPOCH":"2023-05-18T19:57:38.514528","MEAN_MOTION_DDOT":"0.0000000000000","CLASSIFICATION_TYPE":"U","CENTER_NAME":"EARTH","BSTAR":"0.00007308100000","REF_FRAME":"TEME","PERIAPSIS":"538.886","DECAY_DATE":null,"PERIOD":"95.437","RA_OF_ASC_NODE":"174.3732","SITE":"AFWTR","EPHEMERIS_TYPE":"0","TLE_LINE2":"2 50179  53.2158 174.3732 0001230  87.9872 272.1261 15.08842736 81736","TLE_LINE1":"1 50179U 21125Z   23138.83169577  .00000875  00000-0  73081-4 0  9999","MEAN_ELEMENT_THEORY":"SGP4","GP_ID":"232113409","LAUNCH_DATE":"2021-12-18","APOAPSIS":"540.588","ARG_OF_PERICENTER":"87.9872","ELEMENT_SET_NO":"999","INCLINATION":"53.2158","TIME_SYSTEM":"UTC","RCS_SIZE":"LARGE","OBJECT_TYPE":"PAYLOAD","SEMIMAJOR_AXIS":"6917.872","OBJECT_NAME":"STARLINK-3283","MEAN_MOTION_DOT":"0.00000875","OBJECT_ID":"2021-125Z","MEAN_ANOMALY":"272.1261","REV_AT_EPOCH":"8173"}];
